[{"OBJECT_NAME":"VSP ROSE","OBJECT_ID":"2024-043AC","EPOCH":"2026-03-09T21:48:06.922944","MEAN_MOTION":15.27746075,"ECCENTRICITY":0.00099339,"INCLINATION":97.5443,"RA_OF_ASC_NODE":203.927,"ARG_OF_PERICENTER":232.2702,"MEAN_ANOMALY":127.7637,"EPHEMERIS_TYPE":0,"CLASSIFICATION_TYPE":"U","NORAD_CAT_ID":59124,"ELEMENT_SET_NO":999,"REV_AT_EPOCH":11182,"BSTAR":0.00025731354,"MEAN_MOTION_DOT":6.907e-5,"MEAN_MOTION_DDOT":0},{"OBJECT_NAME":"STARLINK-32481","OBJECT_ID":"2024-239V","EPOCH":"2026-03-09T14:20:52.480896","MEAN_MOTION":15.30192248,"ECCENTRICITY":8.64e-5,"INCLINATION":53.158,"RA_OF_ASC_NODE":181.2934,"ARG_OF_PERICENTER":77.3849,"MEAN_ANOMALY":282.7248,"EPHEMERIS_TYPE":0,"CLASSIFICATION_TYPE":"U","NORAD_CAT_ID":62320,"ELEMENT_SET_NO":999,"REV_AT_EPOCH":6955,"BSTAR":0.00082302,"MEAN_MOTION_DOT":0.0002409,"MEAN_MOTION_DDOT":0}]
